******** Week 331 almanac for PRN-18 ********
ID:                         18
Health:                     000
Eccentricity:               0.5492210388E-002
Time of Applicability(s):  147456.0000
Orbital Inclination(rad):   0.9734989622
Rate of Right Ascen(r/s):  -0.7611745631E-008
SQRT(A)  (m 1/2):           5153.642578
Right Ascen at Week(rad):   0.4323518859E+000
Argument of Perigee(rad):  -2.931597575
Mean Anom(rad):            -0.1184423043E+001
Af0(s):                    -0.5769729614E-003
Af1(s/s):                   0.7275957614E-011
week:                        331

******** Week 331 almanac for PRN-19 ********
ID:                         19
Health:                     000
Eccentricity:               0.1078319550E-001
Time of Applicability(s):  147456.0000
Orbital Inclination(rad):   0.9615207295
Rate of Right Ascen(r/s):  -0.8057478483E-008
SQRT(A)  (m 1/2):           5153.601562
Right Ascen at Week(rad):  -0.5315801445E+000
Argument of Perigee(rad):   2.844780104
Mean Anom(rad):             0.2670673285E+001
Af0(s):                     0.6532669067E-003
Af1(s/s):                   0.3637978807E-011
week:                        331

******** Week 331 almanac for PRN-21 ********
ID:                         21
Health:                     000
Eccentricity:               0.1416206360E-003
Time of Applicability(s):  147456.0000
Orbital Inclination(rad):   0.9598369459
Rate of Right Ascen(r/s):  -0.8206056101E-008
SQRT(A)  (m 1/2):           5153.592285
Right Ascen at Week(rad):   0.1482682688E+001
Argument of Perigee(rad):   0.999644646
Mean Anom(rad):             0.2045022218E+001
Af0(s):                     0.1716613770E-003
Af1(s/s):                   0.2546585165E-010
week:                        331

******** Week 331 almanac for PRN-22 ********
ID:                         22
Health:                     000
Eccentricity:               0.1300382614E-001
Time of Applicability(s):  147456.0000
Orbital Inclination(rad):   0.9581531623
Rate of Right Ascen(r/s):  -0.8126052768E-008
SQRT(A)  (m 1/2):           5153.587402
Right Ascen at Week(rad):  -0.1591563116E+001
Argument of Perigee(rad):  -1.052017956
Mean Anom(rad):             0.1390818361E+001
Af0(s):                    -0.9727478027E-004
Af1(s/s):                   0.0000000000E+000
week:                        331

******** Week 331 almanac for PRN-23 ********
ID:                         23
Health:                     000
Eccentricity:               0.5508899689E-002
Time of Applicability(s):  147456.0000
Orbital Inclination(rad):   0.9850637393
Rate of Right Ascen(r/s):  -0.7943188009E-008
SQRT(A)  (m 1/2):           5153.617188
Right Ascen at Week(rad):   0.1436690229E+001
Argument of Perigee(rad):  -2.846994190
Mean Anom(rad):            -0.2233290646E+001
Af0(s):                     0.5254745483E-003
Af1(s/s):                   0.7275957614E-011
week:                        331

******** Week 331 almanac for PRN-24 ********
ID:                         24
Health:                     000
Eccentricity:               0.1711797714E-001
Time of Applicability(s):  147456.0000
Orbital Inclination(rad):   0.9348797975
Rate of Right Ascen(r/s):  -0.7954617056E-008
SQRT(A)  (m 1/2):           5153.620117
Right Ascen at Week(rad):  -0.2834018645E+001
Argument of Perigee(rad):   1.081151607
Mean Anom(rad):            -0.1011916867E+001
Af0(s):                    -0.3337860107E-003
Af1(s/s):                   0.1091393642E-010
week:                        331

******** Week 331 almanac for PRN-25 ********
ID:                         25
Health:                     000
Eccentricity:               0.1233053207E-001
Time of Applicability(s):  147456.0000
Orbital Inclination(rad):   0.9477748235
Rate of Right Ascen(r/s):  -0.8194627053E-008
SQRT(A)  (m 1/2):           5153.531738
Right Ascen at Week(rad):  -0.1703775159E+001
Argument of Perigee(rad):   1.128293428
Mean Anom(rad):            -0.2729510586E+001
Af0(s):                     0.4768371582E-003
Af1(s/s):                   0.0000000000E+000
week:                        331

******** Week 331 almanac for PRN-26 ********
ID:                         26
Health:                     000
Eccentricity:               0.1017856598E-001
Time of Applicability(s):  147456.0000
Orbital Inclination(rad):   0.9285701031
Rate of Right Ascen(r/s):  -0.8343204671E-008
SQRT(A)  (m 1/2):           5153.551758
Right Ascen at Week(rad):  -0.1774521784E+001
Argument of Perigee(rad):   0.640200291
Mean Anom(rad):             0.2697474131E+001
Af0(s):                    -0.2603530884E-003
Af1(s/s):                   0.0000000000E+000
week:                        331

******** Week 331 almanac for PRN-27 ********
ID:                         27
Health:                     000
Eccentricity:               0.1346588135E-001
Time of Applicability(s):  147456.0000
Orbital Inclination(rad):   0.9555465933
Rate of Right Ascen(r/s):  -0.8160339911E-008
SQRT(A)  (m 1/2):           5153.595215
Right Ascen at Week(rad):  -0.6468983487E+000
Argument of Perigee(rad):   0.851261591
Mean Anom(rad):             0.9220351801E+000
Af0(s):                    -0.2384185791E-004
Af1(s/s):                   0.0000000000E+000
week:                        331

******** Week 331 almanac for PRN-28 ********
ID:                         28
Health:                     000
Eccentricity:               0.3571510315E-003
Time of Applicability(s):  147456.0000
Orbital Inclination(rad):   0.9619641458
Rate of Right Ascen(r/s):  -0.7680319916E-008
SQRT(A)  (m 1/2):           5153.617188
Right Ascen at Week(rad):  -0.2757242457E+001
Argument of Perigee(rad):   0.246582543
Mean Anom(rad):            -0.1851396841E+001
Af0(s):                    -0.6361007690E-003
Af1(s/s):                   0.0000000000E+000
week:                        331

******** Week 331 almanac for PRN-29 ********
ID:                         29
Health:                     000
Eccentricity:               0.3349781036E-002
Time of Applicability(s):  147456.0000
Orbital Inclination(rad):   0.9648763124
Rate of Right Ascen(r/s):  -0.8057478483E-008
SQRT(A)  (m 1/2):           5153.552246
Right Ascen at Week(rad):  -0.5594479615E+000
Argument of Perigee(rad):   2.762195313
Mean Anom(rad):             0.7299823584E+000
Af0(s):                    -0.4701614380E-003
Af1(s/s):                   0.3637978807E-011
week:                        331

******** Week 331 almanac for PRN-30 ********
ID:                         30
Health:                     000
Eccentricity:               0.7696628571E-002
Time of Applicability(s):  147456.0000
Orbital Inclination(rad):   0.9361561174
Rate of Right Ascen(r/s):  -0.7931758961E-008
SQRT(A)  (m 1/2):           5153.591797
Right Ascen at Week(rad):  -0.2735196726E+001
Argument of Perigee(rad):  -2.354215221
Mean Anom(rad):            -0.2161718983E+001
Af0(s):                    -0.6675720215E-004
Af1(s/s):                   0.1091393642E-010
week:                        331

******** Week 331 almanac for PRN-31 ********
ID:                         31
Health:                     000
Eccentricity:               0.1068687439E-001
Time of Applicability(s):  147456.0000
Orbital Inclination(rad):   0.9547736108
Rate of Right Ascen(r/s):  -0.7726036106E-008
SQRT(A)  (m 1/2):           5153.665039
Right Ascen at Week(rad):  -0.2705864212E+001
Argument of Perigee(rad):   0.852466755
Mean Anom(rad):            -0.2933091858E+001
Af0(s):                    -0.1964569092E-003
Af1(s/s):                   0.0000000000E+000
week:                        331

******** Week 331 almanac for PRN-32 ********
ID:                         32
Health:                     000
Eccentricity:               0.8619308472E-002
Time of Applicability(s):  147456.0000
Orbital Inclination(rad):   0.9658590189
Rate of Right Ascen(r/s):  -0.8148910863E-008
SQRT(A)  (m 1/2):           5153.589844
Right Ascen at Week(rad):   0.2497709461E+001
Argument of Perigee(rad):  -2.060002499
Mean Anom(rad):             0.1575472796E+001
Af0(s):                    -0.3633499146E-003
Af1(s/s):                   0.1091393642E-010
week:                        331

